[{"OBJECT_NAME":"STARLINK-5984","OBJECT_ID":"2023-058N","EPOCH":"2026-03-09T22:10:52.604544","MEAN_MOTION":15.05648411,"ECCENTRICITY":0.00018782,"INCLINATION":97.604,"RA_OF_ASC_NODE":71.4743,"ARG_OF_PERICENTER":71.1743,"MEAN_ANOMALY":288.9687,"EPHEMERIS_TYPE":0,"CLASSIFICATION_TYPE":"U","NORAD_CAT_ID":56329,"ELEMENT_SET_NO":999,"REV_AT_EPOCH":15823,"BSTAR":0.00013117499,"MEAN_MOTION_DOT":1.832e-5,"MEAN_MOTION_DDOT":0},{"OBJECT_NAME":"COSMOS 2084","OBJECT_ID":"1990-055A","EPOCH":"2026-03-09T23:42:10.320480","MEAN_MOTION":15.05654003,"ECCENTRICITY":0.00170188,"INCLINATION":62.7921,"RA_OF_ASC_NODE":334.5624,"ARG_OF_PERICENTER":190.1371,"MEAN_ANOMALY":169.9389,"EPHEMERIS_TYPE":0,"CLASSIFICATION_TYPE":"U","NORAD_CAT_ID":20663,"ELEMENT_SET_NO":999,"REV_AT_EPOCH":93636,"BSTAR":0.00023056361,"MEAN_MOTION_DOT":3.154e-5,"MEAN_MOTION_DDOT":0}]
